{
  "type": "FeatureCollection",
  "features": [
    {
      "type": "Feature",
      "properties": {
        "norad_id": 34963,
        "name": "COSMOS 2251 DEB",
        "group": "cosmos-2251-debris",
        "lat": -66.38221116625114,
        "lon": -17.75435557961735,
        "alt_km": 718.7268039908076,
        "timestamp": "2025-12-23T11:34:48.556049+00:00",
        "meta_object_name": "COSMOS 2251 DEB",
        "meta_object_id": "1993-036AES",
        "meta_epoch": "2025-12-22T19:22:05.292480",
        "meta_mean_motion": 14.51171721,
        "meta_eccentricity": 0.00421225,
        "meta_inclination": 74.1708,
        "meta_ra_of_asc_node": 23.9592,
        "meta_arg_of_pericenter": 218.4859,
        "meta_mean_anomaly": 141.3297,
        "meta_ephemeris_type": 0,
        "meta_classification_type": "U",
        "meta_norad_cat_id": 34963,
        "meta_element_set_no": 999,
        "meta_rev_at_epoch": 86947,
        "meta_bstar": 0.0011861563,
        "meta_mean_motion_dot": 4.738e-05,
        "meta_mean_motion_ddot": 0,
        "tle_line1": "1 34963U 93036AES 25356.80700570  .00004738  00000+0  11862-2 0  9995",
        "tle_line2": "2 34963  74.1708  23.9592 0042122 218.4859 141.3297 14.51171721869473"
      },
      "geometry": {
        "type": "Point",
        "coordinates": [
          -17.75435557961735,
          -66.38221116625114
        ]
      }
    },
    {
      "type": "Feature",
      "properties": {
        "norad_id": 34964,
        "name": "COSMOS 2251 DEB",
        "group": "cosmos-2251-debris",
        "lat": 24.7858484956362,
        "lon": 141.51677277081828,
        "alt_km": 757.6608210993872,
        "timestamp": "2025-12-23T11:34:48.556058+00:00",
        "meta_object_name": "COSMOS 2251 DEB",
        "meta_object_id": "1993-036AET",
        "meta_epoch": "2025-12-18T07:25:04.519776",
        "meta_mean_motion": 14.00628567,
        "meta_eccentricity": 0.02123167,
        "meta_inclination": 73.9712,
        "meta_ra_of_asc_node": 338.1457,
        "meta_arg_of_pericenter": 195.4091,
        "meta_mean_anomaly": 164.0515,
        "meta_ephemeris_type": 0,
        "meta_classification_type": "U",
        "meta_norad_cat_id": 34964,
        "meta_element_set_no": 999,
        "meta_rev_at_epoch": 84556,
        "meta_bstar": 0.00089791859,
        "meta_mean_motion_dot": 1.6e-05,
        "meta_mean_motion_ddot": 0,
        "tle_line1": "1 34964U 93036AET 25352.30908009  .00001600  00000+0  89792-3 0  9997",
        "tle_line2": "2 34964  73.9712 338.1457 0212316 195.4091 164.0515 14.00628567845561"
      },
      "geometry": {
        "type": "Point",
        "coordinates": [
          141.51677277081828,
          24.7858484956362
        ]
      }
    },
    {
      "type": "Feature",
      "properties": {
        "norad_id": 34965,
        "name": "COSMOS 2251 DEB",
        "group": "cosmos-2251-debris",
        "lat": -69.2015412713432,
        "lon": 59.519007857508676,
        "alt_km": 724.4494139265016,
        "timestamp": "2025-12-23T11:34:48.556067+00:00",
        "meta_object_name": "COSMOS 2251 DEB",
        "meta_object_id": "1993-036AEU",
        "meta_epoch": "2025-12-22T14:23:15.701856",
        "meta_mean_motion": 14.48730461,
        "meta_eccentricity": 0.00264392,
        "meta_inclination": 74.0517,
        "meta_ra_of_asc_node": 110.009,
        "meta_arg_of_pericenter": 236.0306,
        "meta_mean_anomaly": 123.8341,
        "meta_ephemeris_type": 0,
        "meta_classification_type": "U",
        "meta_norad_cat_id": 34965,
        "meta_element_set_no": 999,
        "meta_rev_at_epoch": 87256,
        "meta_bstar": 0.00029767583,
        "meta_mean_motion_dot": 1.1e-05,
        "meta_mean_motion_ddot": 0,
        "tle_line1": "1 34965U 93036AEU 25356.59948729  .00001100  00000+0  29768-3 0  9998",
        "tle_line2": "2 34965  74.0517 110.0090 0026439 236.0306 123.8341 14.48730461872566"
      },
      "geometry": {
        "type": "Point",
        "coordinates": [
          59.519007857508676,
          -69.2015412713432
        ]
      }
    },
    {
      "type": "Feature",
      "properties": {
        "norad_id": 34967,
        "name": "COSMOS 2251 DEB",
        "group": "cosmos-2251-debris",
        "lat": 22.63847144197295,
        "lon": -119.29918115283171,
        "alt_km": 716.5326493658476,
        "timestamp": "2025-12-23T11:34:48.556076+00:00",
        "meta_object_name": "COSMOS 2251 DEB",
        "meta_object_id": "1993-036AEW",
        "meta_epoch": "2025-12-13T00:27:20.673792",
        "meta_mean_motion": 14.44269018,
        "meta_eccentricity": 0.00380101,
        "meta_inclination": 73.9933,
        "meta_ra_of_asc_node": 253.3374,
        "meta_arg_of_pericenter": 39.5345,
        "meta_mean_anomaly": 320.8573,
        "meta_ephemeris_type": 0,
        "meta_classification_type": "U",
        "meta_norad_cat_id": 34967,
        "meta_element_set_no": 999,
        "meta_rev_at_epoch": 64961,
        "meta_bstar": 0.0011451852,
        "meta_mean_motion_dot": 3.946e-05,
        "meta_mean_motion_ddot": 0,
        "tle_line1": "1 34967U 93036AEW 25347.01898928  .00003946  00000+0  11452-2 0  9992",
        "tle_line2": "2 34967  73.9933 253.3374 0038010  39.5345 320.8573 14.44269018649616"
      },
      "geometry": {
        "type": "Point",
        "coordinates": [
          -119.29918115283171,
          22.63847144197295
        ]
      }
    },
    {
      "type": "Feature",
      "properties": {
        "norad_id": 34968,
        "name": "COSMOS 2251 DEB",
        "group": "cosmos-2251-debris",
        "lat": 69.04494617433106,
        "lon": -1.7707563600425773,
        "alt_km": 717.8316690193751,
        "timestamp": "2025-12-23T11:34:48.556084+00:00",
        "meta_object_name": "COSMOS 2251 DEB",
        "meta_object_id": "1993-036AEX",
        "meta_epoch": "2025-12-23T01:14:18.761856",
        "meta_mean_motion": 14.59422462,
        "meta_eccentricity": 0.0087106,
        "meta_inclination": 74.0381,
        "meta_ra_of_asc_node": 227.4132,
        "meta_arg_of_pericenter": 345.2401,
        "meta_mean_anomaly": 14.6221,
        "meta_ephemeris_type": 0,
        "meta_classification_type": "U",
        "meta_norad_cat_id": 34968,
        "meta_element_set_no": 999,
        "meta_rev_at_epoch": 88628,
        "meta_bstar": 0.00012973,
        "meta_mean_motion_dot": 6.15e-06,
        "meta_mean_motion_ddot": 0,
        "tle_line1": "1 34968U 93036AEX 25357.05160604  .00000615  00000+0  12973-3 0  9991",
        "tle_line2": "2 34968  74.0381 227.4132 0087106 345.2401  14.6221 14.59422462886284"
      },
      "geometry": {
        "type": "Point",
        "coordinates": [
          -1.7707563600425773,
          69.04494617433106
        ]
      }
    },
    {
      "type": "Feature",
      "properties": {
        "norad_id": 34969,
        "name": "COSMOS 2251 DEB",
        "group": "cosmos-2251-debris",
        "lat": -43.141043129070745,
        "lon": -160.90308338695013,
        "alt_km": 791.1695621032914,
        "timestamp": "2025-12-23T11:34:48.556093+00:00",
        "meta_object_name": "COSMOS 2251 DEB",
        "meta_object_id": "1993-036AEY",
        "meta_epoch": "2025-12-21T18:18:22.827744",
        "meta_mean_motion": 14.32268431,
        "meta_eccentricity": 0.00731947,
        "meta_inclination": 74.0139,
        "meta_ra_of_asc_node": 6.6546,
        "meta_arg_of_pericenter": 137.5862,
        "meta_mean_anomaly": 223.0979,
        "meta_ephemeris_type": 0,
        "meta_classification_type": "U",
        "meta_norad_cat_id": 34969,
        "meta_element_set_no": 999,
        "meta_rev_at_epoch": 65266,
        "meta_bstar": 0.0001981389,
        "meta_mean_motion_dot": 5.25e-06,
        "meta_mean_motion_ddot": 0,
        "tle_line1": "1 34969U 93036AEY 25355.76276421  .00000525  00000+0  19814-3 0  9994",
        "tle_line2": "2 34969  74.0139   6.6546 0073194 137.5862 223.0979 14.32268431652661"
      },
      "geometry": {
        "type": "Point",
        "coordinates": [
          -160.90308338695013,
          -43.141043129070745
        ]
      }
    },
    {
      "type": "Feature",
      "properties": {
        "norad_id": 34971,
        "name": "COSMOS 2251 DEB",
        "group": "cosmos-2251-debris",
        "lat": 17.75663186373435,
        "lon": -90.13670258108397,
        "alt_km": 723.0453357449378,
        "timestamp": "2025-12-23T11:34:48.556123+00:00",
        "meta_object_name": "COSMOS 2251 DEB",
        "meta_object_id": "1993-036AFA",
        "meta_epoch": "2025-12-18T11:38:13.277760",
        "meta_mean_motion": 14.55642375,
        "meta_eccentricity": 0.00693978,
        "meta_inclination": 73.9787,
        "meta_ra_of_asc_node": 274.0839,
        "meta_arg_of_pericenter": 138.3039,
        "meta_mean_anomaly": 342.538,
        "meta_ephemeris_type": 0,
        "meta_classification_type": "U",
        "meta_norad_cat_id": 34971,
        "meta_element_set_no": 999,
        "meta_rev_at_epoch": 66256,
        "meta_bstar": 0.00012982435,
        "meta_mean_motion_dot": 5.55e-06,
        "meta_mean_motion_ddot": 0,
        "tle_line1": "1 34971U 93036AFA 25352.48487590  .00000555  00000+0  12982-3 0  9996",
        "tle_line2": "2 34971  73.9787 274.0839 0069397 138.3039 342.5380 14.55642375662563"
      },
      "geometry": {
        "type": "Point",
        "coordinates": [
          -90.13670258108397,
          17.75663186373435
        ]
      }
    }
  ]
}